{"type": "FeatureCollection", "features": [ {"type": "Feature", "properties": {"norad_id": 66509, "name": "STARLINK-35598", "group": "last-30-days", "lat": -21.495093524692265, "lon": -7.983813484630234, "alt_km": 416.66124370173566, "timestamp": "2025-12-08T23:34:02.739395+00:00", "meta": {"OBJECT_NAME": "STARLINK-35598", "OBJECT_ID": "2025-263AA", "EPOCH": "2025-12-08T14:00:01.999872", "MEAN_MOTION": 15.50583105, "ECCENTRICITY": 0.00014453, "INCLINATION": 43, "RA_OF_ASC_NODE": 149.3486, "ARG_OF_PERICENTER": 264.5919, "MEAN_ANOMALY": 240.0895, "EPHEMERIS_TYPE": 0, "CLASSIFICATION_TYPE": "U", "NORAD_CAT_ID": 66509, "ELEMENT_SET_NO": 999, "REV_AT_EPOCH": 496, "BSTAR": -0.00096032447, "MEAN_MOTION_DOT": -0.00056284, "MEAN_MOTION_DDOT": 0}, "tle": {"line1": "1 66509U 25263AA  25342.58335648 -.00056284  00000+0 -96032-3 0  9991", "line2": "2 66509  43.0000 149.3486 0001445 264.5919 240.0895 15.50583105  4960"}}, "geometry": {"type": "Point", "coordinates": [-7.983813484630234, -21.495093524692265]}}, {"type": "Feature", "properties": {"norad_id": 66510, "name": "STARLINK-35600", "group": "last-30-days", "lat": -17.88156455202515, "lon": -12.712320270512741, "alt_km": 416.5168924421696, "timestamp": "2025-12-08T23:34:02.739405+00:00", "meta": {"OBJECT_NAME": "STARLINK-35600", "OBJECT_ID": "2025-263AB", "EPOCH": "2025-12-08T14:00:01.999872", "MEAN_MOTION": 15.50595216, "ECCENTRICITY": 0.00013174, "INCLINATION": 42.9999, "RA_OF_ASC_NODE": 149.3627, "ARG_OF_PERICENTER": 267.6072, "MEAN_ANOMALY": 231.319, "EPHEMERIS_TYPE": 0, "CLASSIFICATION_TYPE": "U", "NORAD_CAT_ID": 66510, "ELEMENT_SET_NO": 999, "REV_AT_EPOCH": 496, "BSTAR": -0.0012437592, "MEAN_MOTION_DOT": -0.00072674, "MEAN_MOTION_DDOT": 0}, "tle": {"line1": "1 66510U 25263AB  25342.58335648 -.00072674  00000+0 -12438-2 0  9991", "line2": "2 66510  42.9999 149.3627 0001317 267.6072 231.3190 15.50595216  4963"}}, "geometry": {"type": "Point", "coordinates": [-12.712320270512741, -17.88156455202515]}}, {"type": "Feature", "properties": {"norad_id": 66511, "name": "STARLINK-35444", "group": "last-30-days", "lat": -20.276610375984358, "lon": -9.621154916266022, "alt_km": 416.66488547188055, "timestamp": "2025-12-08T23:34:02.739415+00:00", "meta": {"OBJECT_NAME": "STARLINK-35444", "OBJECT_ID": "2025-263AC", "EPOCH": "2025-12-08T14:00:01.999872", "MEAN_MOTION": 15.50513491, "ECCENTRICITY": 0.00015535, "INCLINATION": 43.0001, "RA_OF_ASC_NODE": 149.3535, "ARG_OF_PERICENTER": 280.785, "MEAN_ANOMALY": 221.9494, "EPHEMERIS_TYPE": 0, "CLASSIFICATION_TYPE": "U", "NORAD_CAT_ID": 66511, "ELEMENT_SET_NO": 999, "REV_AT_EPOCH": 496, "BSTAR": 0.0017120789, "MEAN_MOTION_DOT": 0.00101169, "MEAN_MOTION_DDOT": 0}, "tle": {"line1": "1 66511U 25263AC  25342.58335648  .00101169  00000+0  17121-2 0  9996", "line2": "2 66511  43.0001 149.3535 0001553 280.7850 221.9494 15.50513491  4967"}}, "geometry": {"type": "Point", "coordinates": [-9.621154916266022, -20.276610375984358]}}, {"type": "Feature", "properties": {"norad_id": 66512, "name": "STARLINK-35366", "group": "last-30-days", "lat": -22.65672121326497, "lon": -6.37617869204815, "alt_km": 416.90080702698015, "timestamp": "2025-12-08T23:34:02.739426+00:00", "meta": {"OBJECT_NAME": "STARLINK-35366", "OBJECT_ID": "2025-263AD", "EPOCH": "2025-12-08T14:00:01.999872", "MEAN_MOTION": 15.50557534, "ECCENTRICITY": 0.00015293, "INCLINATION": 43, "RA_OF_ASC_NODE": 149.3437, "ARG_OF_PERICENTER": 285.03, "MEAN_ANOMALY": 221.535, "EPHEMERIS_TYPE": 0, "CLASSIFICATION_TYPE": "U", "NORAD_CAT_ID": 66512, "ELEMENT_SET_NO": 999, "REV_AT_EPOCH": 496, "BSTAR": 0.00054337924, "MEAN_MOTION_DOT": 0.0003164, "MEAN_MOTION_DDOT": 0}, "tle": {"line1": "1 66512U 25263AD  25342.58335648  .00031640  00000+0  54338-3 0  9995", "line2": "2 66512  43.0000 149.3437 0001529 285.0300 221.5350 15.50557534  4962"}}, "geometry": {"type": "Point", "coordinates": [-6.37617869204815, -22.65672121326497]}}, {"type": "Feature", "properties": {"norad_id": 66513, "name": "STARLINK-35692", "group": "last-30-days", "lat": -19.099328815896854, "lon": -11.159950219017107, "alt_km": 416.5734192752325, "timestamp": "2025-12-08T23:34:02.739436+00:00", "meta": {"OBJECT_NAME": "STARLINK-35692", "OBJECT_ID": "2025-263AE", "EPOCH": "2025-12-08T14:00:01.999872", "MEAN_MOTION": 15.50593785, "ECCENTRICITY": 0.00013568, "INCLINATION": 43, "RA_OF_ASC_NODE": 149.3583, "ARG_OF_PERICENTER": 266.5536, "MEAN_ANOMALY": 234.289, "EPHEMERIS_TYPE": 0, "CLASSIFICATION_TYPE": "U", "NORAD_CAT_ID": 66513, "ELEMENT_SET_NO": 999, "REV_AT_EPOCH": 496, "BSTAR": -0.0012232825, "MEAN_MOTION_DOT": -0.00071491, "MEAN_MOTION_DDOT": 0}, "tle": {"line1": "1 66513U 25263AE  25342.58335648 -.00071491  00000+0 -12233-2 0  9993", "line2": "2 66513  43.0000 149.3583 0001356 266.5536 234.2890 15.50593785  4966"}}, "geometry": {"type": "Point", "coordinates": [-11.159950219017107, -19.099328815896854]}}, {"type": "Feature", "properties": {"norad_id": 66514, "name": "SENTINEL-6B", "group": "last-30-days", "lat": 33.462113574940936, "lon": -172.6544640344773, "alt_km": 1332.4116194697062, "timestamp": "2025-12-08T23:34:02.739446+00:00", "meta": {"OBJECT_NAME": "SENTINEL-6B", "OBJECT_ID": "2025-264A", "EPOCH": "2025-12-08T14:01:41.053152", "MEAN_MOTION": 12.84032003, "ECCENTRICITY": 0.00210395, "INCLINATION": 66.0385, "RA_OF_ASC_NODE": 171.0841, "ARG_OF_PERICENTER": 268.3306, "MEAN_ANOMALY": 91.5301, "EPHEMERIS_TYPE": 0, "CLASSIFICATION_TYPE": "U", "NORAD_CAT_ID": 66514, "ELEMENT_SET_NO": 999, "REV_AT_EPOCH": 275, "BSTAR": 0.00011898365, "MEAN_MOTION_DOT": -3.3e-07, "MEAN_MOTION_DDOT": 0}, "tle": {"line1": "1 66514U 25264A   25342.58450293 -.00000033  00000+0  11898-3 0  9999", "line2": "2 66514  66.0385 171.0841 0021039 268.3306  91.5301 12.84032003  2753"}}, "geometry": {"type": "Point", "coordinates": [-172.6544640344773, 33.462113574940936]}}, {"type": "Feature", "properties": {"norad_id": 66516, "name": "STARLINK-35924", "group": "last-30-days", "lat": 5.876735544612937, "lon": 82.35692480787019, "alt_km": 401.9648350428188, "timestamp": "2025-12-08T23:34:02.739474+00:00", "meta": {"OBJECT_NAME": "STARLINK-35924", "OBJECT_ID": "2025-265A", "EPOCH": "2025-12-08T14:00:01.999872", "MEAN_MOTION": 15.56463649, "ECCENTRICITY": 0.00012795, "INCLINATION": 43.0003, "RA_OF_ASC_NODE": 78.3649, "ARG_OF_PERICENTER": 273.4152, "MEAN_ANOMALY": 20.3255, "EPHEMERIS_TYPE": 0, "CLASSIFICATION_TYPE": "U", "NORAD_CAT_ID": 66516, "ELEMENT_SET_NO": 999, "REV_AT_EPOCH": 430, "BSTAR": -0.031947672, "MEAN_MOTION_DOT": -0.02069911, "MEAN_MOTION_DDOT": 0}, "tle": {"line1": "1 66516U 25265A   25342.58335648 -.02069911  00000+0 -31948-1 0  9997", "line2": "2 66516  43.0003  78.3649 0001279 273.4152  20.3255 15.56463649  4309"}}, "geometry": {"type": "Point", "coordinates": [82.35692480787019, 5.876735544612937]}}, {"type": "Feature", "properties": {"norad_id": 66517, "name": "STARLINK-35937", "group": "last-30-days", "lat": 7.174681779186117, "lon": 83.77461581686431, "alt_km": 401.64818829133037, "timestamp": "2025-12-08T23:34:02.739484+00:00", "meta": {"OBJECT_NAME": "STARLINK-35937", "OBJECT_ID": "2025-265B", "EPOCH": "2025-12-08T14:00:01.999872", "MEAN_MOTION": 15.56466364, "ECCENTRICITY": 0.00014723, "INCLINATION": 43.0001, "RA_OF_ASC_NODE": 78.3606, "ARG_OF_PERICENTER": 281.0793, "MEAN_ANOMALY": 14.5762, "EPHEMERIS_TYPE": 0, "CLASSIFICATION_TYPE": "U", "NORAD_CAT_ID": 66517, "ELEMENT_SET_NO": 999, "REV_AT_EPOCH": 432, "BSTAR": -0.032022088, "MEAN_MOTION_DOT": -0.02074524, "MEAN_MOTION_DDOT": 0}, "tle": {"line1": "1 66517U 25265B   25342.58335648 -.02074524  00000+0 -32022-1 0  9998", "line2": "2 66517  43.0001  78.3606 0001472 281.0793  14.5762 15.56466364  4329"}}, "geometry": {"type": "Point", "coordinates": [83.77461581686431, 7.174681779186117]}}, {"type": "Feature", "properties": {"norad_id": 66518, "name": "STARLINK-35962", "group": "last-30-days", "lat": 8.46571660735181, "lon": 85.19679760642325, "alt_km": 401.4784124320304, "timestamp": "2025-12-08T23:34:02.739495+00:00", "meta": {"OBJECT_NAME": "STARLINK-35962", "OBJECT_ID": "2025-265C", "EPOCH": "2025-12-08T14:00:01.999872", "MEAN_MOTION": 15.5646436, "ECCENTRICITY": 0.00012755, "INCLINATION": 43.0001, "RA_OF_ASC_NODE": 78.3555, "ARG_OF_PERICENTER": 281.7424, "MEAN_ANOMALY": 15.8293, "EPHEMERIS_TYPE": 0, "CLASSIFICATION_TYPE": "U", "NORAD_CAT_ID": 66518, "ELEMENT_SET_NO": 999, "REV_AT_EPOCH": 432, "BSTAR": -0.03195017, "MEAN_MOTION_DOT": -0.02070102, "MEAN_MOTION_DDOT": 0}, "tle": {"line1": "1 66518U 25265C   25342.58335648 -.02070102  00000+0 -31950-1 0  9996", "line2": "2 66518  43.0001  78.3555 0001275 281.7424  15.8293 15.56464360  4329"}}, "geometry": {"type": "Point", "coordinates": [85.19679760642325, 8.46571660735181]}}, {"type": "Feature", "properties": {"norad_id": 66519, "name": "STARLINK-35931", "group": "last-30-days", "lat": 9.754111074972203, "lon": 86.63148983745543, "alt_km": 401.3724039392446, "timestamp": "2025-12-08T23:34:02.739505+00:00", "meta": {"OBJECT_NAME": "STARLINK-35931", "OBJECT_ID": "2025-265D", "EPOCH": "2025-12-08T14:00:01.999872", "MEAN_MOTION": 15.56463228, "ECCENTRICITY": 0.0001267, "INCLINATION": 43.0003, "RA_OF_ASC_NODE": 78.3505, "ARG_OF_PERICENTER": 279.4524, "MEAN_ANOMALY": 20.037, "EPHEMERIS_TYPE": 0, "CLASSIFICATION_TYPE": "U", "NORAD_CAT_ID": 66519, "ELEMENT_SET_NO": 999, "REV_AT_EPOCH": 432, "BSTAR": -0.031911727, "MEAN_MOTION_DOT": -0.02067797, "MEAN_MOTION_DDOT": 0}, "tle": {"line1": "1 66519U 25265D   25342.58335648 -.02067797  00000+0 -31912-1 0  9991", "line2": "2 66519  43.0003  78.3505 0001267 279.4524  20.0370 15.56463228  4329"}}, "geometry": {"type": "Point", "coordinates": [86.63148983745543, 9.754111074972203]}}]}